IRIDIUM 144             
1 43249U 18030A   23335.47209290  .00000677  00000+0  23470-3 0  9991
2 43249  86.3942 318.5573 0002259  89.3198 270.8256 14.34219727297046
IRIDIUM 149             
1 43250U 18030B   23334.50165763  .00000467  00000+0  15971-3 0  9996
2 43250  86.3941 318.9407 0002405  85.2008 274.9462 14.34216259296900
IRIDIUM 157             
1 43251U 18030C   23335.49745187  .00000664  00000+0  22989-3 0  9996
2 43251  86.3943 318.5563 0001938  92.4501 267.6916 14.34215844297026
IRIDIUM 140             
1 43252U 18030D   23335.44669286  .00000561  00000+0  19310-3 0  9997
2 43252  86.3949 318.5921 0002739  97.9828 262.1679 14.34214720297076
IRIDIUM 145             
1 43253U 18030E   23334.45726145  .00000436  00000+0  14849-3 0  9999
2 43253  86.3944 318.9808 0002458  85.5279 274.6197 14.34217109296864
IRIDIUM 146             
1 43254U 18030F   23335.48475707  .00000528  00000+0  18150-3 0  9990
2 43254  86.3942 318.5659 0002359  84.1287 276.0178 14.34216414297029
IRIDIUM 148             
1 43255U 18030G   23334.47630732  .00000288  00000+0  95655-4 0  9999
2 43255  86.3943 319.0170 0002229  80.9246 279.2202 14.34219119296926
IRIDIUM 142             
1 43256U 18030H   23335.49110239  .00000057  00000+0  13171-4 0  9995
2 43256  86.3940 318.5154 0002217  85.5271 274.6178 14.34216035297023
